{
  "norad_id": 58850,
  "name": "2024-018B",
  "history": [
    {
      "epoch": "2026-03-28T23:13:02.375040Z",
      "apogee_km": 1046.1769886475622,
      "perigee_km": 449.88176250188735,
      "latitude_deg": 5.0566607505816564e-05,
      "longitude_deg": -33.88520308514466,
      "height_km": 460.0274157267133,
      "semi_major_axis_km": 7126.166375574724,
      "eccentricity": 0.04183843,
      "inclination_deg": 58.693,
      "raan_deg": 140.7549,
      "arg_perigee_deg": 14.6007,
      "mean_anomaly_deg": 346.6682,
      "mean_motion_rev_day": 14.4317443
    },
    {
      "epoch": "2026-03-29T04:12:19.018368Z",
      "apogee_km": 1046.1853519110036,
      "perigee_km": 449.86387250449206,
      "latitude_deg": -4.444654897296288e-05,
      "longitude_deg": -109.64175576400969,
      "height_km": 460.30766910038443,
      "semi_major_axis_km": 7126.161612207748,
      "eccentricity": 0.0418403,
      "inclination_deg": 58.693,
      "raan_deg": 140.0226,
      "arg_perigee_deg": 14.8465,
      "mean_anomaly_deg": 346.4417,
      "mean_motion_rev_day": 14.43175877
    },
    {
      "epoch": "2026-03-30T05:08:41.922240Z",
      "apogee_km": 1046.2364024406215,
      "perigee_km": 449.75487186016653,
      "latitude_deg": 3.371099190035696e-05,
      "longitude_deg": -128.42277752973075,
      "height_km": 461.7584607974403,
      "semi_major_axis_km": 7126.132637150394,
      "eccentricity": 0.0418517,
      "inclination_deg": 58.6929,
      "raan_deg": 136.3612,
      "arg_perigee_deg": 16.072,
      "mean_anomaly_deg": 345.3128,
      "mean_motion_rev_day": 14.43184679
    },
    {
      "epoch": "2026-03-30T06:48:27.428256Z",
      "apogee_km": 1046.2373711766495,
      "perigee_km": 449.7498804784191,
      "latitude_deg": 4.5247376712816885e-06,
      "longitude_deg": -153.6747857223367,
      "height_km": 461.8621978665609,
      "semi_major_axis_km": 7126.130625827534,
      "eccentricity": 0.04185213,
      "inclination_deg": 58.6929,
      "raan_deg": 136.1171,
      "arg_perigee_deg": 16.154,
      "mean_anomaly_deg": 345.2372,
      "mean_motion_rev_day": 14.4318529
    },
    {
      "epoch": "2026-03-30T15:07:14.927232Z",
      "apogee_km": 1046.255159602244,
      "perigee_km": 449.7142568214522,
      "latitude_deg": -1.0378333193673208e-05,
      "longitude_deg": 80.06538251224178,
      "height_km": 462.37587093475037,
      "semi_major_axis_km": 7126.121708211847,
      "eccentricity": 0.04185593,
      "inclination_deg": 58.6927,
      "raan_deg": 134.8966,
      "arg_perigee_deg": 16.562,
      "mean_anomaly_deg": 344.8612,
      "mean_motion_rev_day": 14.43187999
    },
    {
      "epoch": "2026-03-30T21:46:16.866624Z",
      "apogee_km": 1046.2646565442174,
      "perigee_km": 449.6872868054761,
      "latitude_deg": 5.417856797248363e-06,
      "longitude_deg": -20.942216334304007,
      "height_km": 462.79837778986945,
      "semi_major_axis_km": 7126.112971674846,
      "eccentricity": 0.04185854,
      "inclination_deg": 58.6927,
      "raan_deg": 133.9202,
      "arg_perigee_deg": 16.8887,
      "mean_anomaly_deg": 344.5601,
      "mean_motion_rev_day": 14.43190653
    },
    {
      "epoch": "2026-03-31T21:02:53.402208Z",
      "apogee_km": 1046.288635363334,
      "perigee_km": 449.60865724415817,
      "latitude_deg": -2.8462870606168943e-05,
      "longitude_deg": -14.468211928636059,
      "height_km": 464.3617768385155,
      "semi_major_axis_km": 7126.085646303746,
      "eccentricity": 0.0418659,
      "inclination_deg": 58.6923,
      "raan_deg": 130.5024,
      "arg_perigee_deg": 18.0328,
      "mean_anomaly_deg": 343.5052,
      "mean_motion_rev_day": 14.43198954
    },
    {
      "epoch": "2026-04-01T20:19:29.495424Z",
      "apogee_km": 1046.3425106285758,
      "perigee_km": 449.52004041699183,
      "latitude_deg": 3.389611066472279e-05,
      "longitude_deg": -7.992201192961212,
      "height_km": 466.01963515373325,
      "semi_major_axis_km": 7126.068275522784,
      "eccentricity": 0.041876,
      "inclination_deg": 58.6922,
      "raan_deg": 127.0847,
      "arg_perigee_deg": 19.1755,
      "mean_anomaly_deg": 342.4513,
      "mean_motion_rev_day": 14.43204231
    },
    {
      "epoch": "2026-04-02T14:36:48.866688Z",
      "apogee_km": 1046.3464962178796,
      "perigee_km": 449.45106885872246,
      "latitude_deg": 2.7064408027643164e-05,
      "longitude_deg": 74.2405908844801,
      "height_km": 467.3947072276342,
      "semi_major_axis_km": 7126.035782538301,
      "eccentricity": 0.04188131,
      "inclination_deg": 58.6918,
      "raan_deg": 124.3993,
      "arg_perigee_deg": 20.0726,
      "mean_anomaly_deg": 341.6234,
      "mean_motion_rev_day": 14.43214102
    },
    {
      "epoch": "2026-04-02T22:55:35.732352Z",
      "apogee_km": 1046.3403951064556,
      "perigee_km": 449.422066926405,
      "latitude_deg": -7.416159458316813e-07,
      "longitude_deg": -52.01680281881558,
      "height_km": 468.0434427839688,
      "semi_major_axis_km": 7126.01823101643,
      "eccentricity": 0.04188302,
      "inclination_deg": 58.6918,
      "raan_deg": 123.1786,
      "arg_perigee_deg": 20.4805,
      "mean_anomaly_deg": 341.2468,
      "mean_motion_rev_day": 14.43219434
    },
    {
      "epoch": "2026-04-03T20:32:25.193760Z",
      "apogee_km": 1046.3572940877002,
      "perigee_km": 449.3380237717711,
      "latitude_deg": 1.3346980998541056e-07,
      "longitude_deg": -20.2842362537764,
      "height_km": 469.7841075924993,
      "semi_major_axis_km": 7125.984658929736,
      "eccentricity": 0.0418903,
      "inclination_deg": 58.6916,
      "raan_deg": 120.0049,
      "arg_perigee_deg": 21.5407,
      "mean_anomaly_deg": 340.2678,
      "mean_motion_rev_day": 14.43229633
    },
    {
      "epoch": "2026-04-04T19:48:59.228064Z",
      "apogee_km": 1046.3709635054838,
      "perigee_km": 449.24937027696615,
      "latitude_deg": -3.86771979036389e-05,
      "longitude_deg": -13.79988643038962,
      "height_km": 471.7577156198604,
      "semi_major_axis_km": 7125.947166891225,
      "eccentricity": 0.0418977,
      "inclination_deg": 58.6915,
      "raan_deg": 116.587,
      "arg_perigee_deg": 22.6809,
      "mean_anomaly_deg": 339.2143,
      "mean_motion_rev_day": 14.43241023
    },
    {
      "epoch": "2026-04-05T14:06:17.012160Z",
      "apogee_km": 1046.383648791032,
      "perigee_km": 449.18634943819325,
      "latitude_deg": 7.0356422955124e-05,
      "longitude_deg": 68.43940519783817,
      "height_km": 473.38883127578487,
      "semi_major_axis_km": 7125.921999114613,
      "eccentricity": 0.04190316,
      "inclination_deg": 58.6916,
      "raan_deg": 113.9014,
      "arg_perigee_deg": 23.5778,
      "mean_anomaly_deg": 338.3853,
      "mean_motion_rev_day": 14.43248669
    },
    {
      "epoch": "2026-04-05T20:45:17.938080Z",
      "apogee_km": 1046.3905835462665,
      "perigee_km": 449.1607183573442,
      "latitude_deg": 3.367450017568635e-05,
      "longitude_deg": -32.564091842736055,
      "height_km": 473.99467949157435,
      "semi_major_axis_km": 7125.9126509518055,
      "eccentricity": 0.0419055,
      "inclination_deg": 58.6917,
      "raan_deg": 112.9249,
      "arg_perigee_deg": 23.9036,
      "mean_anomaly_deg": 338.084,
      "mean_motion_rev_day": 14.43251509
    },
    {
      "epoch": "2026-04-06T06:43:49.240128Z",
      "apogee_km": 1046.4018338892074,
      "perigee_km": 449.1238725807434,
      "latitude_deg": 6.923754620530876e-06,
      "longitude_deg": 175.93109229298653,
      "height_km": 474.92121569808216,
      "semi_major_axis_km": 7125.899853234975,
      "eccentricity": 0.04190895,
      "inclination_deg": 58.6917,
      "raan_deg": 111.4602,
      "arg_perigee_deg": 24.3926,
      "mean_anomaly_deg": 337.6317,
      "mean_motion_rev_day": 14.43255397
    },
    {
      "epoch": "2026-04-07T12:39:22.478400Z",
      "apogee_km": 1046.4431248392648,
      "perigee_km": 449.00276121820207,
      "latitude_deg": 1.865149290258519e-05,
      "longitude_deg": 81.41929023215374,
      "height_km": 477.8028834793438,
      "semi_major_axis_km": 7125.859943028733,
      "eccentricity": 0.04192058,
      "inclination_deg": 58.6918,
      "raan_deg": 107.0659,
      "arg_perigee_deg": 25.8594,
      "mean_anomaly_deg": 336.2744,
      "mean_motion_rev_day": 14.43267522
    },
    {
      "epoch": "2026-04-07T20:58:08.252832Z",
      "apogee_km": 1046.4558146561913,
      "perigee_km": 448.97448927051937,
      "latitude_deg": 2.3441233219657377e-05,
      "longitude_deg": -44.833425765803874,
      "height_km": 478.641274078644,
      "semi_major_axis_km": 7125.852151963355,
      "eccentricity": 0.0419235,
      "inclination_deg": 58.692,
      "raan_deg": 105.8453,
      "arg_perigee_deg": 26.2682,
      "mean_anomaly_deg": 335.8959,
      "mean_motion_rev_day": 14.43269889
    },
    {
      "epoch": "2026-04-08T11:55:54.401088Z",
      "apogee_km": 1046.4590782699042,
      "perigee_km": 448.9292061223223,
      "latitude_deg": -7.936065465497608e-06,
      "longitude_deg": 87.91246781212082,
      "height_km": 480.1822795074867,
      "semi_major_axis_km": 7125.8311421961125,
      "eccentricity": 0.04192703,
      "inclination_deg": 58.6921,
      "raan_deg": 103.648,
      "arg_perigee_deg": 27.0016,
      "mean_anomaly_deg": 335.2165,
      "mean_motion_rev_day": 14.43276272
    },
    {
      "epoch": "2026-04-09T21:10:56.256384Z",
      "apogee_km": 1046.4742361795115,
      "perigee_km": 448.82045168521745,
      "latitude_deg": -1.613097893177162e-05,
      "longitude_deg": -57.09352180732576,
      "height_km": 483.7505868714092,
      "semi_major_axis_km": 7125.784343932364,
      "eccentricity": 0.041936,
      "inclination_deg": 58.6922,
      "raan_deg": 98.7653,
      "arg_perigee_deg": 28.6327,
      "mean_anomaly_deg": 333.7045,
      "mean_motion_rev_day": 14.4329049
    },
    {
      "epoch": "2026-04-10T07:09:26.556192Z",
      "apogee_km": 1046.4831328993587,
      "perigee_km": 448.78253758906703,
      "latitude_deg": -4.738540812576917e-05,
      "longitude_deg": 151.40574692321945,
      "height_km": 484.8553359653885,
      "semi_major_axis_km": 7125.769835244213,
      "eccentricity": 0.04193937,
      "inclination_deg": 58.6922,
      "raan_deg": 97.3005,
      "arg_perigee_deg": 29.1217,
      "mean_anomaly_deg": 333.2509,
      "mean_motion_rev_day": 14.43294898
    },
    {
      "epoch": "2026-04-11T19:43:56.899776Z",
      "apogee_km": 1046.5306974846444,
      "perigee_km": 448.6521544851221,
      "latitude_deg": 1.709746660658089e-05,
      "longitude_deg": -44.093934426163045,
      "height_km": 489.0651427077032,
      "semi_major_axis_km": 7125.728425984883,
      "eccentricity": 0.0419521,
      "inclination_deg": 58.6921,
      "raan_deg": 91.9293,
      "arg_perigee_deg": 30.9127,
      "mean_anomaly_deg": 331.5885,
      "mean_motion_rev_day": 14.43307479
    },
    {
      "epoch": "2026-04-13T06:38:41.169696Z",
      "apogee_km": 1046.5845524162241,
      "perigee_km": 448.53330158428616,
      "latitude_deg": 5.713345232604302e-05,
      "longitude_deg": 145.6604340662352,
      "height_km": 493.3148751461055,
      "semi_major_axis_km": 7125.695927000254,
      "eccentricity": 0.04196441,
      "inclination_deg": 58.6922,
      "raan_deg": 86.8019,
      "arg_perigee_deg": 32.6223,
      "mean_anomaly_deg": 329.9997,
      "mean_motion_rev_day": 14.43317353
    }
  ]
}